FLOCK 4G-30             
1 62679U 25009BY  26068.70871344  .00013147  00000+0  49475-3 0  9999
2 62679  97.3969 150.6012 0003795 342.4152  17.6955 15.27244548121341
STARLINK-35836          
1 66571U 25268Q   26068.15612101  .00040369  00000+0  14684-2 0  9993
2 66571  43.0058 350.4695 0001791 280.5587  79.5063 15.27581175 17877
